{
  "type": "FeatureCollection",
  "features": [
    {
      "type": "Feature",
      "properties": {
        "norad_id": 66399,
        "name": "STARLINK-35657",
        "group": "last-30-days",
        "lat": 42.318970588112556,
        "lon": 82.7769950339465,
        "alt_km": 411.877285996974,
        "timestamp": "2025-12-03T22:42:31.474999+00:00",
        "meta_object_name": "STARLINK-35657",
        "meta_object_id": "2025-257V",
        "meta_epoch": "2025-12-03T09:47:49.011360",
        "meta_mean_motion": 15.49341076,
        "meta_eccentricity": 0.000152,
        "meta_inclination": 53.1589,
        "meta_ra_of_asc_node": 308.4035,
        "meta_arg_of_pericenter": 89.0998,
        "meta_mean_anomaly": 271.0185,
        "meta_ephemeris_type": 0,
        "meta_classification_type": "U",
        "meta_norad_cat_id": 66399,
        "meta_element_set_no": 999,
        "meta_rev_at_epoch": 493,
        "meta_bstar": 0.0017712,
        "meta_mean_motion_dot": 0.00099437,
        "meta_mean_motion_ddot": 0,
        "tle_line1": "1 66399U 25257V   25337.40820615  .00099437  00000+0  17712-2 0  9991",
        "tle_line2": "2 66399  53.1589 308.4035 0001520  89.0998 271.0185 15.49341076  4930"
      },
      "geometry": {
        "type": "Point",
        "coordinates": [
          82.7769950339465,
          42.318970588112556
        ]
      }
    },
    {
      "type": "Feature",
      "properties": {
        "norad_id": 66400,
        "name": "STARLINK-35667",
        "group": "last-30-days",
        "lat": 40.01065312334486,
        "lon": 86.81937689069072,
        "alt_km": 412.223377247843,
        "timestamp": "2025-12-03T22:42:31.475008+00:00",
        "meta_object_name": "STARLINK-35667",
        "meta_object_id": "2025-257W",
        "meta_epoch": "2025-12-03T09:46:49.656288",
        "meta_mean_motion": 15.49337573,
        "meta_eccentricity": 0.0001596,
        "meta_inclination": 53.1591,
        "meta_ra_of_asc_node": 308.3982,
        "meta_arg_of_pericenter": 93.3557,
        "meta_mean_anomaly": 266.7634,
        "meta_ephemeris_type": 0,
        "meta_classification_type": "U",
        "meta_norad_cat_id": 66400,
        "meta_element_set_no": 999,
        "meta_rev_at_epoch": 493,
        "meta_bstar": 0.0016029,
        "meta_mean_motion_dot": 0.00089823,
        "meta_mean_motion_ddot": 0,
        "tle_line1": "1 66400U 25257W   25337.40751917  .00089823  00000+0  16029-2 0  9990",
        "tle_line2": "2 66400  53.1591 308.3982 0001596  93.3557 266.7634 15.49337573  4935"
      },
      "geometry": {
        "type": "Point",
        "coordinates": [
          86.81937689069072,
          40.01065312334486
        ]
      }
    },
    {
      "type": "Feature",
      "properties": {
        "norad_id": 66401,
        "name": "STARLINK-35668",
        "group": "last-30-days",
        "lat": 38.8270940605209,
        "lon": 88.70408152946762,
        "alt_km": 412.6948702745558,
        "timestamp": "2025-12-03T22:42:31.475018+00:00",
        "meta_object_name": "STARLINK-35668",
        "meta_object_id": "2025-257X",
        "meta_epoch": "2025-12-03T09:46:19.901856",
        "meta_mean_motion": 15.49325274,
        "meta_eccentricity": 0.000129,
        "meta_inclination": 53.1591,
        "meta_ra_of_asc_node": 308.3958,
        "meta_arg_of_pericenter": 92.5031,
        "meta_mean_anomaly": 267.6125,
        "meta_ephemeris_type": 0,
        "meta_classification_type": "U",
        "meta_norad_cat_id": 66401,
        "meta_element_set_no": 999,
        "meta_rev_at_epoch": 493,
        "meta_bstar": 0.001307,
        "meta_mean_motion_dot": 0.00072963,
        "meta_mean_motion_ddot": 0,
        "tle_line1": "1 66401U 25257X   25337.40717479  .00072963  00000+0  13070-2 0  9996",
        "tle_line2": "2 66401  53.1591 308.3958 0001290  92.5031 267.6125 15.49325274  4938"
      },
      "geometry": {
        "type": "Point",
        "coordinates": [
          88.70408152946762,
          38.8270940605209
        ]
      }
    },
    {
      "type": "Feature",
      "properties": {
        "norad_id": 66402,
        "name": "STARLINK-35644",
        "group": "last-30-days",
        "lat": 41.193722373250345,
        "lon": 84.81388550243513,
        "alt_km": 412.16724104740297,
        "timestamp": "2025-12-03T22:42:31.475027+00:00",
        "meta_object_name": "STARLINK-35644",
        "meta_object_id": "2025-257Y",
        "meta_epoch": "2025-12-03T09:47:19.224960",
        "meta_mean_motion": 15.49336186,
        "meta_eccentricity": 0.000135,
        "meta_inclination": 53.1589,
        "meta_ra_of_asc_node": 308.4006,
        "meta_arg_of_pericenter": 97.6608,
        "meta_mean_anomaly": 262.4554,
        "meta_ephemeris_type": 0,
        "meta_classification_type": "U",
        "meta_norad_cat_id": 66402,
        "meta_element_set_no": 999,
        "meta_rev_at_epoch": 493,
        "meta_bstar": 0.0014419,
        "meta_mean_motion_dot": 0.00080654,
        "meta_mean_motion_ddot": 0,
        "tle_line1": "1 66402U 25257Y   25337.40786140  .00080654  00000+0  14419-2 0  9992",
        "tle_line2": "2 66402  53.1589 308.4006 0001350  97.6608 262.4554 15.49336186  4937"
      },
      "geometry": {
        "type": "Point",
        "coordinates": [
          84.81388550243513,
          41.193722373250345
        ]
      }
    },
    {
      "type": "Feature",
      "properties": {
        "norad_id": 66403,
        "name": "STARLINK-35602",
        "group": "last-30-days",
        "lat": 37.56149923802578,
        "lon": 90.603056308256,
        "alt_km": 412.67781460219885,
        "timestamp": "2025-12-03T22:42:31.475036+00:00",
        "meta_object_name": "STARLINK-35602",
        "meta_object_id": "2025-257Z",
        "meta_epoch": "2025-12-03T09:45:50.213088",
        "meta_mean_motion": 15.49337898,
        "meta_eccentricity": 0.0001535,
        "meta_inclination": 53.1589,
        "meta_ra_of_asc_node": 308.3937,
        "meta_arg_of_pericenter": 95.6566,
        "meta_mean_anomaly": 264.4619,
        "meta_ephemeris_type": 0,
        "meta_classification_type": "U",
        "meta_norad_cat_id": 66403,
        "meta_element_set_no": 999,
        "meta_rev_at_epoch": 493,
        "meta_bstar": 0.0014761,
        "meta_mean_motion_dot": 0.00082605,
        "meta_mean_motion_ddot": 0,
        "tle_line1": "1 66403U 25257Z   25337.40683117  .00082605  00000+0  14761-2 0  9991",
        "tle_line2": "2 66403  53.1589 308.3937 0001535  95.6566 264.4619 15.49337898  4931"
      },
      "geometry": {
        "type": "Point",
        "coordinates": [
          90.603056308256,
          37.56149923802578
        ]
      }
    },
    {
      "type": "Feature",
      "properties": {
        "norad_id": 66404,
        "name": "STARLINK-35691",
        "group": "last-30-days",
        "lat": 36.30386991909718,
        "lon": 92.3857462651527,
        "alt_km": 413.0283728689965,
        "timestamp": "2025-12-03T22:42:31.475047+00:00",
        "meta_object_name": "STARLINK-35691",
        "meta_object_id": "2025-257AA",
        "meta_epoch": "2025-12-03T09:45:20.526912",
        "meta_mean_motion": 15.49334654,
        "meta_eccentricity": 0.0001363,
        "meta_inclination": 53.1589,
        "meta_ra_of_asc_node": 308.391,
        "meta_arg_of_pericenter": 95.3443,
        "meta_mean_anomaly": 264.7722,
        "meta_ephemeris_type": 0,
        "meta_classification_type": "U",
        "meta_norad_cat_id": 66404,
        "meta_element_set_no": 999,
        "meta_rev_at_epoch": 493,
        "meta_bstar": 0.0013375,
        "meta_mean_motion_dot": 0.00074719,
        "meta_mean_motion_ddot": 0,
        "tle_line1": "1 66404U 25257AA  25337.40648758  .00074719  00000+0  13375-2 0  9991",
        "tle_line2": "2 66404  53.1589 308.3910 0001363  95.3443 264.7722 15.49334654  4938"
      },
      "geometry": {
        "type": "Point",
        "coordinates": [
          92.3857462651527,
          36.30386991909718
        ]
      }
    },
    {
      "type": "Feature",
      "properties": {
        "norad_id": 66405,
        "name": "STARLINK-35683",
        "group": "last-30-days",
        "lat": 35.0302522587714,
        "lon": 94.0980551650499,
        "alt_km": 413.35662783372754,
        "timestamp": "2025-12-03T22:42:31.475057+00:00",
        "meta_object_name": "STARLINK-35683",
        "meta_object_id": "2025-257AB",
        "meta_epoch": "2025-12-03T09:44:50.807040",
        "meta_mean_motion": 15.49327856,
        "meta_eccentricity": 0.0001212,
        "meta_inclination": 53.1589,
        "meta_ra_of_asc_node": 308.388,
        "meta_arg_of_pericenter": 100.6263,
        "meta_mean_anomaly": 259.4882,
        "meta_ephemeris_type": 0,
        "meta_classification_type": "U",
        "meta_norad_cat_id": 66405,
        "meta_element_set_no": 999,
        "meta_rev_at_epoch": 486,
        "meta_bstar": 0.001056,
        "meta_mean_motion_dot": 0.00058763,
        "meta_mean_motion_ddot": 0,
        "tle_line1": "1 66405U 25257AB  25337.40614360  .00058763  00000+0  10560-2 0  9998",
        "tle_line2": "2 66405  53.1589 308.3880 0001212 100.6263 259.4882 15.49327856  4864"
      },
      "geometry": {
        "type": "Point",
        "coordinates": [
          94.0980551650499,
          35.0302522587714
        ]
      }
    }
  ]
}